STARLINK-30800
1 58206U 23170A   26061.16668981  .00972788  00000+0  47189-1 0  9994
2 58206  42.9996 236.6911 0001626 289.6676 267.2594 15.15359730  5828
